     2.10           G: GLONASS NAV DATA                     RINEX VERSION / TYPE
teqc  2015Jun23                         20210807 01:25:48UTCPGM / RUN BY / DATE
Linux 2.4.21-27.ELsmp|Opteron|gcc -static|Linux x86_64|=+   COMMENT
  2021     7    14    1.350417733192D-08                    CORR TO SYSTEM TIME
                                                            END OF HEADER
18 21  7 15 10 45  0.0 8.349027484655D-05 9.094947017729D-13 3.780000000000D+04
   -1.109948046875D+04 5.858545303345D-01 0.000000000000D+00 0.000000000000D+00
    1.043440576172D+04-2.747446060181D+00-0.000000000000D+00-3.000000000000D+00
   -2.046745507812D+04-1.713386535645D+00 1.862645149231D-09 0.000000000000D+00
19 21  7 15 10 45  0.0-1.515829935670D-04-9.094947017729D-13 3.780000000000D+04
   -8.250837890625D+03 4.557752609253D-01 9.313225746155D-10 0.000000000000D+00
    2.261348193359D+04-1.088886260986D+00 2.793967723846D-09 3.000000000000D+00
   -8.435265625000D+03-3.368501663208D+00 9.313225746155D-10 0.000000000000D+00
20 21  7 15 10 45  0.0-5.252286791801D-05-0.000000000000D+00 3.780000000000D+04
    7.033710937500D+02-8.488655090332D-02 9.313225746155D-10 0.000000000000D+00
    2.277440917969D+04 1.590965270996D+00 3.725290298462D-09 2.000000000000D+00
    1.150621826172D+04-3.140226364136D+00-0.000000000000D+00 0.000000000000D+00
 9 21  7 15 10 45  0.0 3.009103238583D-06 1.818989403546D-12 3.933000000000D+04
    5.063329101562D+03-2.909213066101D+00-0.000000000000D+00 0.000000000000D+00
    1.010314794922D+04 1.159806251526D+00 0.000000000000D+00-2.000000000000D+00
   -2.284523242188D+04-1.386957168579D-01 2.793967723846D-09 0.000000000000D+00
15 21  7 15 11 15  0.0 1.026727259159D-04-0.000000000000D+00 3.960000000000D+04
   -2.301374072266D+04 7.555923461914D-01 9.313225746155D-10 0.000000000000D+00
    9.424373535156D+03-2.404623031616D-01-0.000000000000D+00 0.000000000000D+00
    5.714329101562D+03 3.454100608826D+00-9.313225746155D-10 0.000000000000D+00
 9 21  7 15 11 15  0.0 3.011897206306D-06 1.818989403546D-12 3.960000000000D+04
    3.001123046875D+01-2.639440536499D+00 0.000000000000D+00 0.000000000000D+00
    1.253249316406D+04 1.514053344727D+00 0.000000000000D+00-2.000000000000D+00
   -2.220693310547D+04 8.430824279785D-01 2.793967723846D-09 0.000000000000D+00
 6 21  7 15 11 15  0.0 2.014860510826D-04 0.000000000000D+00 3.960000000000D+04
    1.317648828125D+04-1.706306457520D+00 9.313225746155D-10 0.000000000000D+00
    1.598131884766D+04-1.122905731201D+00 3.725290298462D-09-4.000000000000D+00
    1.489416357422D+04 2.710882186890D+00-9.313225746155D-10 0.000000000000D+00
16 21  7 15 11 15  0.0-1.791771501303D-05-9.094947017729D-13 3.960000000000D+04
   -1.516318750000D+04-1.464549064636D+00 9.313225746155D-10 0.000000000000D+00
    1.596953662109D+04 9.647541046143D-01 0.000000000000D+00-1.000000000000D+00
   -1.277878417969D+04 2.958563804626D+00 9.313225746155D-10 0.000000000000D+00
19 21  7 15 11 15  0.0-1.515857875347D-04-9.094947017729D-13 3.960000000000D+04
   -7.513326171875D+03 3.232154846191D-01 9.313225746155D-10 0.000000000000D+00
    1.989007910156D+04-1.915934562683D+00 9.313225746155D-10 3.000000000000D+00
   -1.409406640625D+04-2.878251075745D+00 1.862645149231D-09 0.000000000000D+00
20 21  7 15 11 15  0.0-5.252379924059D-05-0.000000000000D+00 3.960000000000D+04
    8.431679687500D+02 2.032270431519D-01 1.862645149231D-09 0.000000000000D+00
    2.491789746094D+04 7.660560607910D-01 3.725290298462D-09 2.000000000000D+00
    5.482775390625D+03-3.509107589722D+00 0.000000000000D+00 0.000000000000D+00
21 21  7 15 11 15  0.0-2.240361645818D-04-2.728484105319D-12 4.074000000000D+04
    8.894298339844D+03 6.569862365723D-03 9.313225746155D-10 0.000000000000D+00
    1.197107373047D+04 2.840170860291D+00 2.793967723846D-09 4.000000000000D+00
    2.067751562500D+04-1.649204254150D+00-9.313225746155D-10 0.000000000000D+00
 6 21  7 15 11 45  0.0 2.014879137278D-04 0.000000000000D+00 4.140000000000D+04
    9.473173339844D+03-2.386094093323D+00 1.862645149231D-09 0.000000000000D+00
    1.395607324219D+04-1.086186408997D+00 2.793967723846D-09-4.000000000000D+00
    1.913511816406D+04 1.970658302307D+00-9.313225746155D-10 0.000000000000D+00
15 21  7 15 11 45  0.0 1.026727259159D-04-0.000000000000D+00 4.140000000000D+04
   -2.107479101562D+04 1.362052917480D+00 9.313225746155D-10 0.000000000000D+00
    8.482761230469D+03-8.270616531372D-01-9.313225746155D-10 0.000000000000D+00
    1.163080664062D+04 3.077172279358D+00-1.862645149231D-09 0.000000000000D+00
 9 21  7 15 11 45  0.0 3.015622496605D-06 1.818989403546D-12 4.140000000000D+04
   -4.301001464844D+03-2.141368865967D+00 0.000000000000D+00 0.000000000000D+00
    1.543760595703D+04 1.675795555115D+00 0.000000000000D+00-2.000000000000D+00
   -1.985016552734D+04 1.758330345154D+00 1.862645149231D-09 0.000000000000D+00
16 21  7 15 11 45  0.0-1.792050898075D-05-9.094947017729D-13 4.140000000000D+04
   -1.710270556641D+04-6.918697357178D-01 9.313225746155D-10 0.000000000000D+00
    1.748691259766D+04 6.785268783569D-01-0.000000000000D+00-1.000000000000D+00
   -7.025558593750D+03 3.392238616943D+00 0.000000000000D+00 0.000000000000D+00
19 21  7 15 11 45  0.0-1.515885815024D-04-9.094947017729D-13 4.140000000000D+04
   -7.216668945312D+03-2.369403839111D-02 0.000000000000D+00 0.000000000000D+00
    1.582450537109D+04-2.563251495361D+00 0.000000000000D+00 3.000000000000D+00
   -1.866323486328D+04-2.165686607361D+00 1.862645149231D-09 0.000000000000D+00
20 21  7 15 11 45  0.0-5.252473056316D-05-0.000000000000D+00 4.140000000000D+04
    1.288875976562D+03 2.493352890015D-01 1.862645149231D-09 0.000000000000D+00
    2.547773388672D+04-1.491680145264D-01 2.793967723846D-09 2.000000000000D+00
   -9.636870117188D+02-3.607217788696D+00 9.313225746155D-10 0.000000000000D+00
21 21  7 15 11 45  0.0-2.240408211946D-04-2.728484105319D-12 4.140000000000D+04
    9.267789550781D+03 3.826055526733D-01 1.862645149231D-09 0.000000000000D+00
    1.663627978516D+04 2.300566673279D+00 2.793967723846D-09 4.000000000000D+00
    1.694672998047D+04-2.469204902649D+00-9.313225746155D-10 0.000000000000D+00
15 21  7 15 12 15  0.0 1.026727259159D-04 0.000000000000D+00 4.320000000000D+04
   -1.826004003906D+04 1.720447540283D+00 9.313225746155D-10 0.000000000000D+00
    6.400340332031D+03-1.490759849548D+00-9.313225746155D-10 0.000000000000D+00
    1.664944531250D+04 2.463013648987D+00-1.862645149231D-09 0.000000000000D+00
 9 21  7 15 12 15  0.0 3.019347786903D-06 1.818989403546D-12 4.320000000000D+04
   -7.595079589844D+03-1.504182815552D+00 9.313225746155D-10 0.000000000000D+00
    1.841422509766D+04 1.587047576904D+00 0.000000000000D+00-2.000000000000D+00
   -1.595937841797D+04 2.536556243896D+00 9.313225746155D-10 0.000000000000D+00
16 21  7 15 12 15  0.0-1.792237162590D-05-9.094947017729D-13 4.320000000000D+04
   -1.769250439453D+04 1.698780059814D-02 9.313225746155D-10 0.000000000000D+00
    1.826856982422D+04 1.543169021606D-01-0.000000000000D+00-1.000000000000D+00
   -7.253984375000D+02 3.562162399292D+00-0.000000000000D+00 0.000000000000D+00
19 21  7 15 12 15  0.0-1.515904441476D-04-9.094947017729D-13 4.320000000000D+04
   -7.679907714844D+03-5.052156448364D-01-0.000000000000D+00 0.000000000000D+00
    1.082213574219D+04-2.945673942566D+00-0.000000000000D+00 3.000000000000D+00
   -2.179001220703D+04-1.286009788513D+00 1.862645149231D-09 0.000000000000D+00
20 21  7 15 12 15  0.0-5.252473056316D-05-0.000000000000D+00 4.320000000000D+04
    1.588187011719D+03 4.270839691162D-02 1.862645149231D-09 0.000000000000D+00
    2.439910839844D+04-1.034202575684D+00 1.862645149231D-09 2.000000000000D+00
   -7.335797851562D+03-3.427027702332D+00 9.313225746155D-10 0.000000000000D+00
21 21  7 15 12 15  0.0-2.240464091301D-04-2.728484105319D-12 4.320000000000D+04
    1.015452490234D+04 5.645780563354D-01 2.793967723846D-09 0.000000000000D+00
    2.012425292969D+04 1.547281265259D+00 2.793967723846D-09 4.000000000000D+00
    1.190328857422D+04-3.098184585571D+00-0.000000000000D+00 0.000000000000D+00
 6 21  7 15 12 15  0.0 2.014879137278D-04 0.000000000000D+00 4.395000000000D+04
    4.697083496094D+03-2.882533073425D+00 1.862645149231D-09 0.000000000000D+00
    1.220436328125D+04-8.285551071167D-01 1.862645149231D-09-4.000000000000D+00
    2.189671582031D+04 1.077805519104D+00-1.862645149231D-09 0.000000000000D+00
 9 21  7 15 12 45  0.0 3.023073077202D-06 2.728484105319D-12 4.500000000000D+04
   -9.696956542969D+03-8.351659774780D-01 9.313225746155D-10 0.000000000000D+00
    2.098961523438D+04 1.230870246887D+00-0.000000000000D+00-2.000000000000D+00
   -1.083684033203D+04 3.118169784546D+00 9.313225746155D-10 0.000000000000D+00
16 21  7 15 12 45  0.0-1.792516559362D-05-9.094947017729D-13 4.500000000000D+04
   -1.713951416016D+04 5.636129379272D-01 9.313225746155D-10 0.000000000000D+00
    1.793639941406D+04-5.455293655396D-01-9.313225746155D-10-1.000000000000D+00
    5.631245117188D+03 3.454533576965D+00-9.313225746155D-10 0.000000000000D+00
20 21  7 15 12 45  0.0-5.252566188574D-05-0.000000000000D+00 4.500000000000D+04
    1.311571777344D+03-3.809661865234D-01 1.862645149231D-09 0.000000000000D+00
    2.184243310547D+04-1.773653030396D+00 9.313225746155D-10 2.000000000000D+00
   -1.314189794922D+04-2.982373237610D+00 1.862645149231D-09 0.000000000000D+00
21 21  7 15 12 45  0.0-2.240519970655D-04-2.728484105319D-12 4.500000000000D+04
    1.115071435547D+04 4.988088607788D-01 2.793967723846D-09 0.000000000000D+00
    2.214047216797D+04 6.844739913940D-01 2.793967723846D-09 4.000000000000D+00
    5.937615234375D+03-3.487211227417D+00 0.000000000000D+00 0.000000000000D+00
10 21  7 15 12 45  0.0-7.293000817299D-05-0.000000000000D+00 4.509000000000D+04
    2.895579589844D+03-1.796907424927D+00 0.000000000000D+00 0.000000000000D+00
    1.308806542969D+04 2.366163253784D+00 0.000000000000D+00-7.000000000000D+00
   -2.168998291016D+04 1.193947792053D+00 2.793967723846D-09 0.000000000000D+00
